[{"OBJECT_NAME":"STARLINK-1954","OBJECT_ID":"2021-009H","EPOCH":"2026-03-09T23:20:25.352160","MEAN_MOTION":15.30849174,"ECCENTRICITY":0.00046184,"INCLINATION":53.0574,"RA_OF_ASC_NODE":8.8654,"ARG_OF_PERICENTER":103.3293,"MEAN_ANOMALY":256.8222,"EPHEMERIS_TYPE":0,"CLASSIFICATION_TYPE":"U","NORAD_CAT_ID":47555,"ELEMENT_SET_NO":999,"REV_AT_EPOCH":28100,"BSTAR":0.0022371791,"MEAN_MOTION_DOT":0.00067883,"MEAN_MOTION_DDOT":0},{"OBJECT_NAME":"STARLINK-33919","OBJECT_ID":"2025-087C","EPOCH":"2026-03-09T16:24:46.831968","MEAN_MOTION":15.30199068,"ECCENTRICITY":9.515e-5,"INCLINATION":53.1603,"RA_OF_ASC_NODE":219.943,"ARG_OF_PERICENTER":87.8925,"MEAN_ANOMALY":272.2185,"EPHEMERIS_TYPE":0,"CLASSIFICATION_TYPE":"U","NORAD_CAT_ID":63699,"ELEMENT_SET_NO":999,"REV_AT_EPOCH":4919,"BSTAR":0.00057663715,"MEAN_MOTION_DOT":0.00016757,"MEAN_MOTION_DDOT":0}]
